*******************************************************************************
Ephemeris / WWW_USER Mon Mar 24 08:00:34 2025 Pasadena, USA      / Horizons    
*******************************************************************************
Target body name: (2018 UM1)                      {source: JPL#32}
Center body name: Earth (399)                     {source: DE441}
Center-site name: Mauna Kea
*******************************************************************************
Start time      : A.D. 2018-Dec-22 03:58:00.0000 UT      
Stop  time      : A.D. 2018-Dec-22 16:42:00.0000 UT      
Step-size       : 1 minutes
*******************************************************************************
Target pole/equ : undefined
Target radii    : undefined                                                    
Center geodetic : 204.5278, 19.8260847, 4.21024   {E-lon(deg),Lat(deg),Alt(km)}
Center cylindric: 204.5278, 6006.35451, 2151.0229 {E-lon(deg),Dxy(km),Dz(km)}
Center pole/equ : ITRF93                          {East-longitude positive}
Center radii    : 6378.137, 6378.137, 6356.752 km {Equator_a, b, pole_c}       
Target primary  : Sun
Vis. interferer : MOON (R_eq= 1737.400) km        {source: DE441}
Rel. light bend : Sun                             {source: DE441}
Rel. lght bnd GM: 1.3271E+11 km^3/s^2                                          
Small-body perts: Yes                             {source: SB441-N16}
Atmos refraction: NO (AIRLESS)
RA format       : HMS
Time format     : CAL 
Calendar mode   : Mixed Julian/Gregorian
RTS-only print  : NO       
EOP file        : eop.250321.p250617                                           
EOP coverage    : DATA-BASED 1962-JAN-20 TO 2025-MAR-21. PREDICTS-> 2025-JUN-16
Units conversion: 1 au= 149597870.700 km, c= 299792.458 km/s, 1 day= 86400.0 s 
Table cut-offs 1: Elevation (-90.0deg=NO ),Airmass (>38.000=NO), Daylight (YES)
Table cut-offs 2: Solar elongation (  0.0,180.0=NO ),Local Hour Angle( 0.0=NO )
Table cut-offs 3: RA/DEC angular rate (     0.0=NO )                           
*******************************************************************************
Initial IAU76/J2000 heliocentric ecliptic osculating elements (au, days, deg.):
  EPOCH=  2458316.5 ! 2018-Jul-17.00 (TDB)         Residual RMS= .13282        
   EC= .1732206266096905   QR= .9442469573310488   TP= 2458347.0882341689      
   OM= 261.2771090241423   W=  53.36399135060417   IN= 1.987806152492243       
  Equivalent ICRF heliocentric cartesian coordinates (au, au/d):
   X= 1.631856825953344E-01  Y=-8.815145891163165E-01  Z=-3.705958742828900E-01
  VX= 1.811434055353769E-02 VY= 4.114587132606022E-03 VZ= 2.434006136501484E-03
Asteroid physical parameters (km, seconds, rotational period in hours):        
   GM= n.a.                RAD= n.a.               ROTPER= n.a.                
   H= 23.64                G= .150                 B-V= n.a.                   
                           ALBEDO= n.a.            STYP= n.a.                  
*******************************************************************************
 Date__(UT)__HR:MN     R.A._________(ICRF)_________DEC
******************************************************
$$SOE
 2018-Dec-22 08:04  m  02 04 11.036134 +13 12 05.04407
 2018-Dec-22 08:05  m  02 04 11.114041 +13 12 05.23700
 2018-Dec-22 08:06  m  02 04 11.191961 +13 12 05.42983
 2018-Dec-22 08:07  m  02 04 11.269895 +13 12 05.62258
 2018-Dec-22 08:08  m  02 04 11.347842 +13 12 05.81525
 2018-Dec-22 08:09  m  02 04 11.425803 +13 12 06.00782
 2018-Dec-22 08:10  m  02 04 11.503777 +13 12 06.20031
 2018-Dec-22 08:11  m  02 04 11.581765 +13 12 06.39272
 2018-Dec-22 08:12  m  02 04 11.659767 +13 12 06.58504
 2018-Dec-22 08:13  m  02 04 11.737783 +13 12 06.77727
 2018-Dec-22 08:14  m  02 04 11.815813 +13 12 06.96942
 2018-Dec-22 08:15  m  02 04 11.893857 +13 12 07.16148
 2018-Dec-22 08:16  m  02 04 11.971915 +13 12 07.35346
 2018-Dec-22 08:17  m  02 04 12.049988 +13 12 07.54536
 2018-Dec-22 08:18  m  02 04 12.128076 +13 12 07.73717
 2018-Dec-22 08:19  m  02 04 12.206178 +13 12 07.92889
 2018-Dec-22 08:20  m  02 04 12.284295 +13 12 08.12053
 2018-Dec-22 08:21  m  02 04 12.362427 +13 12 08.31209
 2018-Dec-22 08:22  m  02 04 12.440574 +13 12 08.50356
 2018-Dec-22 08:23  m  02 04 12.518736 +13 12 08.69495
 2018-Dec-22 08:24  m  02 04 12.596913 +13 12 08.88626
 2018-Dec-22 08:25  m  02 04 12.675106 +13 12 09.07749
 2018-Dec-22 08:26  m  02 04 12.753314 +13 12 09.26863
 2018-Dec-22 08:27  m  02 04 12.831538 +13 12 09.45969
 2018-Dec-22 08:28  m  02 04 12.909777 +13 12 09.65067
 2018-Dec-22 08:29  m  02 04 12.988032 +13 12 09.84156
 2018-Dec-22 08:30  m  02 04 13.066303 +13 12 10.03237
 2018-Dec-22 08:31  m  02 04 13.144591 +13 12 10.22311
 2018-Dec-22 08:32  m  02 04 13.222894 +13 12 10.41376
 2018-Dec-22 08:33  m  02 04 13.301213 +13 12 10.60433
 2018-Dec-22 08:34  m  02 04 13.379549 +13 12 10.79481
 2018-Dec-22 08:35  m  02 04 13.457902 +13 12 10.98522
 2018-Dec-22 08:36  m  02 04 13.536271 +13 12 11.17555
 2018-Dec-22 08:37  m  02 04 13.614657 +13 12 11.36580
 2018-Dec-22 08:38  m  02 04 13.693059 +13 12 11.55597
 2018-Dec-22 08:39  m  02 04 13.771479 +13 12 11.74606
 2018-Dec-22 08:40  m  02 04 13.849915 +13 12 11.93606
 2018-Dec-22 08:41  m  02 04 13.928369 +13 12 12.12599
 2018-Dec-22 08:42  m  02 04 14.006840 +13 12 12.31585
 2018-Dec-22 08:43  m  02 04 14.085328 +13 12 12.50562
 2018-Dec-22 08:44  m  02 04 14.163834 +13 12 12.69531
 2018-Dec-22 08:45  m  02 04 14.242357 +13 12 12.88493
 2018-Dec-22 08:46  m  02 04 14.320898 +13 12 13.07447
 2018-Dec-22 08:47  m  02 04 14.399457 +13 12 13.26393
 2018-Dec-22 08:48  m  02 04 14.478034 +13 12 13.45331
 2018-Dec-22 08:49  m  02 04 14.556628 +13 12 13.64262
 2018-Dec-22 08:50  m  02 04 14.635241 +13 12 13.83185
 2018-Dec-22 08:51  m  02 04 14.713872 +13 12 14.02100
 2018-Dec-22 08:52  m  02 04 14.792522 +13 12 14.21008
 2018-Dec-22 08:53  m  02 04 14.871189 +13 12 14.39908
 2018-Dec-22 08:54  m  02 04 14.949876 +13 12 14.58800
 2018-Dec-22 08:55  m  02 04 15.028580 +13 12 14.77685
 2018-Dec-22 08:56  m  02 04 15.107304 +13 12 14.96563
 2018-Dec-22 08:57  m  02 04 15.186046 +13 12 15.15433
 2018-Dec-22 08:58  m  02 04 15.264808 +13 12 15.34295
 2018-Dec-22 08:59  m  02 04 15.343588 +13 12 15.53151
 2018-Dec-22 09:00  m  02 04 15.422388 +13 12 15.71998
 2018-Dec-22 09:01  m  02 04 15.501207 +13 12 15.90839
 2018-Dec-22 09:02  m  02 04 15.580045 +13 12 16.09672
 2018-Dec-22 09:03  m  02 04 15.658902 +13 12 16.28497
 2018-Dec-22 09:04  m  02 04 15.737780 +13 12 16.47316
 2018-Dec-22 09:05  m  02 04 15.816676 +13 12 16.66127
 2018-Dec-22 09:06  m  02 04 15.895593 +13 12 16.84931
 2018-Dec-22 09:07  m  02 04 15.974529 +13 12 17.03727
 2018-Dec-22 09:08  m  02 04 16.053486 +13 12 17.22517
 2018-Dec-22 09:09  m  02 04 16.132462 +13 12 17.41299
 2018-Dec-22 09:10  m  02 04 16.211459 +13 12 17.60075
 2018-Dec-22 09:11  m  02 04 16.290475 +13 12 17.78843
 2018-Dec-22 09:12  m  02 04 16.369512 +13 12 17.97604
 2018-Dec-22 09:13  m  02 04 16.448570 +13 12 18.16358
 2018-Dec-22 09:14  m  02 04 16.527648 +13 12 18.35105
 2018-Dec-22 09:15  m  02 04 16.606747 +13 12 18.53845
 2018-Dec-22 09:16  m  02 04 16.685866 +13 12 18.72578
 2018-Dec-22 09:17  m  02 04 16.765006 +13 12 18.91305
 2018-Dec-22 09:18  m  02 04 16.844168 +13 12 19.10024
 2018-Dec-22 09:19  m  02 04 16.923350 +13 12 19.28737
 2018-Dec-22 09:20  m  02 04 17.002553 +13 12 19.47442
 2018-Dec-22 09:21  m  02 04 17.081778 +13 12 19.66141
 2018-Dec-22 09:22  m  02 04 17.161023 +13 12 19.84834
 2018-Dec-22 09:23  m  02 04 17.240291 +13 12 20.03519
 2018-Dec-22 09:24  m  02 04 17.319579 +13 12 20.22198
 2018-Dec-22 09:25  m  02 04 17.398889 +13 12 20.40870
 2018-Dec-22 09:26  m  02 04 17.478221 +13 12 20.59536
 2018-Dec-22 09:27  m  02 04 17.557575 +13 12 20.78195
 2018-Dec-22 09:28  m  02 04 17.636950 +13 12 20.96847
 2018-Dec-22 09:29  m  02 04 17.716348 +13 12 21.15493
 2018-Dec-22 09:30  m  02 04 17.795767 +13 12 21.34132
 2018-Dec-22 09:31  m  02 04 17.875209 +13 12 21.52765
 2018-Dec-22 09:32  m  02 04 17.954673 +13 12 21.71392
 2018-Dec-22 09:33  m  02 04 18.034159 +13 12 21.90012
 2018-Dec-22 09:34  m  02 04 18.113667 +13 12 22.08626
 2018-Dec-22 09:35  m  02 04 18.193198 +13 12 22.27233
 2018-Dec-22 09:36  m  02 04 18.272752 +13 12 22.45834
 2018-Dec-22 09:37  m  02 04 18.352328 +13 12 22.64429
 2018-Dec-22 09:38  m  02 04 18.431927 +13 12 22.83018
 2018-Dec-22 09:39  m  02 04 18.511548 +13 12 23.01600
 2018-Dec-22 09:40  m  02 04 18.591193 +13 12 23.20176
 2018-Dec-22 09:41  m  02 04 18.670861 +13 12 23.38746
 2018-Dec-22 09:42  m  02 04 18.750551 +13 12 23.57310
 2018-Dec-22 09:43  m  02 04 18.830265 +13 12 23.75868
 2018-Dec-22 09:44  m  02 04 18.910002 +13 12 23.94420
 2018-Dec-22 09:45  m  02 04 18.989763 +13 12 24.12966
 2018-Dec-22 09:46  m  02 04 19.069546 +13 12 24.31506
 2018-Dec-22 09:47  m  02 04 19.149354 +13 12 24.50040
 2018-Dec-22 09:48  m  02 04 19.229185 +13 12 24.68568
 2018-Dec-22 09:49  m  02 04 19.309039 +13 12 24.87091
 2018-Dec-22 09:50  m  02 04 19.388918 +13 12 25.05607
 2018-Dec-22 09:51  m  02 04 19.468820 +13 12 25.24118
 2018-Dec-22 09:52  m  02 04 19.548746 +13 12 25.42623
 2018-Dec-22 09:53  m  02 04 19.628696 +13 12 25.61122
 2018-Dec-22 09:54  m  02 04 19.708670 +13 12 25.79616
 2018-Dec-22 09:55  m  02 04 19.788668 +13 12 25.98103
 2018-Dec-22 09:56  m  02 04 19.868691 +13 12 26.16586
 2018-Dec-22 09:57  m  02 04 19.948737 +13 12 26.35062
 2018-Dec-22 09:58  m  02 04 20.028809 +13 12 26.53534
 2018-Dec-22 09:59  m  02 04 20.108904 +13 12 26.71999
 2018-Dec-22 10:00  m  02 04 20.189024 +13 12 26.90459
 2018-Dec-22 10:01  m  02 04 20.269169 +13 12 27.08914
 2018-Dec-22 10:02  m  02 04 20.349339 +13 12 27.27363
 2018-Dec-22 10:03  m  02 04 20.429533 +13 12 27.45807
 2018-Dec-22 10:04  m  02 04 20.509752 +13 12 27.64246
 2018-Dec-22 10:05  m  02 04 20.589996 +13 12 27.82679
 2018-Dec-22 10:06  m  02 04 20.670265 +13 12 28.01108
